COSMO-SKYMED 1          
1 31598U 07023A   26188.51965931  .00001464  00000+0  13179-3 0  9990
2 31598  97.8849  20.5476 0000991  89.4650 270.6685 14.97197166 32839
COSMOS 2428             
1 31792U 07029A   26188.32053255  .00000148  00000+0  10517-3 0  9999
2 31792  70.9381 312.2043 0007170  96.3524 263.8414 14.12930580980997
SHIJIAN-16 (SJ-16)      
1 39358U 13057A   26188.54840523  .00001217  00000+0  12063-3 0  9995
2 39358  74.9740 318.1178 0016113 183.2304 176.8783 14.92656589689382
ALOS-2                  
1 39766U 14029A   26188.56429495  .00001714  00000+0  23630-3 0  9995
2 39766  97.9222 285.4371 0001597  91.7071 268.4323 14.79472475654598
YAOGAN-29               
1 41038U 15069A   26188.48559295  .00000249  00000+0  37156-4 0  9999
2 41038  98.0020 217.1496 0001366  21.2255 338.9015 14.83101964573630
HXMT (HUIYAN)           
1 42758U 17034A   26188.52474089  .00003056  00000+0  15443-3 0  9998
2 42758  43.0143  69.7830 0032765 274.0402  85.6701 15.18640854500754
SAOCOM 1A               
1 43641U 18076A   26188.52420547 -.00000166  00000+0 -14267-4 0  9992
2 43641  97.8890  14.9770 0001488  80.9401 279.1980 14.82162325419118
SAOCOM 1B               
1 46265U 20059A   26188.48793384  .00000705  00000+0  95127-4 0  9999
2 46265  97.8895  14.0369 0001594  82.1981 277.9413 14.82156466316491
CSS (TIANHE)            
1 48274U 21035A   26188.45886302  .00008899  00000+0  11943-3 0  9991
2 48274  41.4676 198.7215 0002931 276.4067  83.6437 15.58027856296336
COSMOS 2550             
1 48865U 21056A   26188.49940803  .00000863  00000+0  32099-4 0  9990
2 48865  67.1431  38.4632 0008455 271.5431  88.4755 15.33773421281831
XRISM                   
1 57800U 23137A   26188.44993644  .00002535  00000+0  13601-3 0  9992
2 57800  31.0012 228.3319 0007816 168.6403 191.4413 15.12636487155936
ACS3                    
1 59588U 24077B   26188.22286897  .00029668  00000+0  20728-1 0  9994
2 59588  97.1721 102.5640 0113938  45.7286 315.3161 13.95267619110831
SPACEMOBILE-003         
1 61045U 24163A   26177.81235899  .00001689  00000+0  90246-4 0  9998
2 61045  52.9744 265.1828 0005991 141.0621 219.0806 15.20822722 99230
SPACEMOBILE-005         
1 61046U 24163B   26187.32459636 -.00004321  00000+0 -17865-3 0  9996
2 61046  52.9788 221.3760 0009297 169.9979 190.1202 15.20800178100677
SPACEMOBILE-001         
1 61047U 24163C   26187.58603882  .00001897  00000+0  99523-4 0  9994
2 61047  52.9741 219.8899 0007438 169.1843 190.9313 15.20820517100714
SPACEMOBILE-002         
1 61048U 24163D   26188.42439404  .00004884  00000+0  23275-3 0  9995
2 61048  52.9752 216.0770 0006252 169.5969 190.5156 15.20863040100843
SPACEMOBILE-004         
1 61049U 24163E   26187.48682538  .00011231  00000+0  51661-3 0  9993
2 61049  52.9667 220.1743 0007073 196.8401 163.2360 15.20801145100708
SZ-21 MODULE            
1 66515U 25246C   26188.03423707  .00038272  00000+0  21756-3 0  9998
2 66515  41.4706 183.5562 0006295 162.6981 197.4080 15.78192992 36878
SPACEMOBILE-006         
1 67232U 25309A   26188.18193633  .00000667  00000+0  47122-4 0  9996
2 67232  52.9952 240.0450 0010676 189.1004 170.9798 15.18643108 29630
